KUIPER-00605            
1 69288U 26118X   26189.91668981 -.01573966  00000+0 -93188-1 0  9993
2 69288  51.8808 309.2414 0003742 276.2869  10.5147 15.14384631  2617
KUIPER-00606            
1 69289U 26118Y   26189.76485459  .00028670  00000+0  75704-3 0  9994
2 69289  51.8695 308.7969 0003564 250.7820 109.2782 15.38218949  7303
KUIPER-00607            
1 69290U 26118Z   26189.83751119  .00024279  00000+0  64941-3 0  9995
2 69290  51.8688 308.5262 0005162 250.0186 110.0245 15.37908572  7317
KUIPER-00608            
1 69291U 26118AA  26189.63623458  .00014169  00000+0  43333-3 0  9997
2 69291  51.8607 310.1343 0007513 275.8559  84.1570 15.34087012  7270
KUIPER-00610            
1 69292U 26118AB  26189.36128545  .00032836  00000+0  85211-3 0  9997
2 69292  51.8722 310.5929 0002436 275.2255  84.8454 15.38686045  7249
KUIPER-00613            
1 69293U 26118AC  26189.91668981 -.01897168  00000+0 -98917-1 0  9997
2 69293  51.8737 309.3630 0009747 271.0936 283.4001 15.18810227  4390
KUIPER-00618            
1 69294U 26118AD  26189.36549482  .00021472  00000+0  58467-3 0  9993
2 69294  51.8722 310.6233 0000506 175.0704 185.0288 15.37440640  7249
KUIPER-00620            
1 69295U 26118AE  26189.81532518  .00031000  00000+0  80580-3 0  9995
2 69295  51.8728 308.3925 0002023 273.5633  86.5122 15.38665267  7314
KUIPER-00423            
1 69592U 26140A   26189.62213642  .00014047  00000+0  37263-3 0  9995
2 69592  51.8809 294.8872 0013510 245.0874 114.8710 15.38497497  4535
KUIPER-00428            
1 69593U 26140B   26189.65364923  .00010941  00000+0  30920-3 0  9990
2 69593  51.8799 295.0909 0007647  10.2928 349.8213 15.36838367  4535
KUIPER-00481            
1 69594U 26140C   26189.63076229  .00014208  00000+0  38489-3 0  9996
2 69594  51.8778 294.9384 0010977 252.6980 107.2807 15.37867434  4531
KUIPER-00490            
1 69595U 26140D   26189.64033344  .00012448  00000+0  33922-3 0  9990
2 69595  51.8773 294.9969 0006376 315.2234  44.8238 15.37843585  4537
KUIPER-00493            
1 69596U 26140E   26189.65775631  .00010293  00000+0  29412-3 0  9999
2 69596  51.8796 295.1170 0007565  17.2836 342.8407 15.36563377  4534
KUIPER-00496            
1 69597U 26140F   26189.80251530  .00017057  00000+0  51366-3 0  9992
2 69597  51.8800 294.5785 0010293  33.0522 327.1105 15.34402220  4556
KUIPER-00513            
1 69598U 26140G   26189.50794968  .00021039  00000+0  56166-3 0  9995
2 69598  51.8799 295.6205 0006476 314.8970  45.1491 15.38051973  4518
KUIPER-00516            
1 69599U 26140H   26189.64380945  .00012593  00000+0  34703-3 0  9995
2 69599  51.8780 295.0229 0006786 330.9271  29.1337 15.37482564  4532
