{"fetched_at":"2026-07-09T18:16:40.685Z","source":"https://celestrak.org/NORAD/elements/gp.php?GROUP=kuiper&FORMAT=JSON","constellation":"kuiper","records":[{"OBJECT_NAME":"KUIPER-00605","OBJECT_ID":"2026-118X","EPOCH":"2026-07-08T22:00:01.999584","CLASSIFICATION_TYPE":"U","MEAN_MOTION":15.14384631,"ECCENTRICITY":0.00037424,"INCLINATION":51.8808,"RA_OF_ASC_NODE":309.2414,"ARG_OF_PERICENTER":276.2869,"MEAN_ANOMALY":10.5147,"EPHEMERIS_TYPE":0,"NORAD_CAT_ID":69288,"ELEMENT_SET_NO":999,"REV_AT_EPOCH":261,"BSTAR":-0.093187637,"MEAN_MOTION_DOT":-0.01573966,"MEAN_MOTION_DDOT":0},{"OBJECT_NAME":"KUIPER-00606","OBJECT_ID":"2026-118Y","EPOCH":"2026-07-08T18:21:23.436576","CLASSIFICATION_TYPE":"U","MEAN_MOTION":15.38218949,"ECCENTRICITY":0.00035643,"INCLINATION":51.8695,"RA_OF_ASC_NODE":308.7969,"ARG_OF_PERICENTER":250.782,"MEAN_ANOMALY":109.2782,"EPHEMERIS_TYPE":0,"NORAD_CAT_ID":69289,"ELEMENT_SET_NO":999,"REV_AT_EPOCH":730,"BSTAR":0.00075704174,"MEAN_MOTION_DOT":0.0002867,"MEAN_MOTION_DDOT":0},{"OBJECT_NAME":"KUIPER-00607","OBJECT_ID":"2026-118Z","EPOCH":"2026-07-08T20:06:00.966816","CLASSIFICATION_TYPE":"U","MEAN_MOTION":15.37908572,"ECCENTRICITY":0.00051623,"INCLINATION":51.8688,"RA_OF_ASC_NODE":308.5262,"ARG_OF_PERICENTER":250.0186,"MEAN_ANOMALY":110.0245,"EPHEMERIS_TYPE":0,"NORAD_CAT_ID":69290,"ELEMENT_SET_NO":999,"REV_AT_EPOCH":731,"BSTAR":0.00064941461,"MEAN_MOTION_DOT":0.00024279,"MEAN_MOTION_DDOT":0},{"OBJECT_NAME":"KUIPER-00608","OBJECT_ID":"2026-118AA","EPOCH":"2026-07-08T15:16:10.667712","CLASSIFICATION_TYPE":"U","MEAN_MOTION":15.34087012,"ECCENTRICITY":0.00075133,"INCLINATION":51.8607,"RA_OF_ASC_NODE":310.1343,"ARG_OF_PERICENTER":275.8559,"MEAN_ANOMALY":84.157,"EPHEMERIS_TYPE":0,"NORAD_CAT_ID":69291,"ELEMENT_SET_NO":999,"REV_AT_EPOCH":727,"BSTAR":0.00043332811,"MEAN_MOTION_DOT":0.00014169,"MEAN_MOTION_DDOT":0},{"OBJECT_NAME":"KUIPER-00610","OBJECT_ID":"2026-118AB","EPOCH":"2026-07-08T08:40:15.062880","CLASSIFICATION_TYPE":"U","MEAN_MOTION":15.38686045,"ECCENTRICITY":0.0002436,"INCLINATION":51.8722,"RA_OF_ASC_NODE":310.5929,"ARG_OF_PERICENTER":275.2255,"MEAN_ANOMALY":84.8454,"EPHEMERIS_TYPE":0,"NORAD_CAT_ID":69292,"ELEMENT_SET_NO":999,"REV_AT_EPOCH":724,"BSTAR":0.00085211116,"MEAN_MOTION_DOT":0.00032836,"MEAN_MOTION_DDOT":0},{"OBJECT_NAME":"KUIPER-00613","OBJECT_ID":"2026-118AC","EPOCH":"2026-07-08T22:00:01.999584","CLASSIFICATION_TYPE":"U","MEAN_MOTION":15.18810227,"ECCENTRICITY":0.00097479,"INCLINATION":51.8737,"RA_OF_ASC_NODE":309.363,"ARG_OF_PERICENTER":271.0936,"MEAN_ANOMALY":283.4001,"EPHEMERIS_TYPE":0,"NORAD_CAT_ID":69293,"ELEMENT_SET_NO":999,"REV_AT_EPOCH":439,"BSTAR":-0.098916928,"MEAN_MOTION_DOT":-0.01897168,"MEAN_MOTION_DDOT":0},{"OBJECT_NAME":"KUIPER-00618","OBJECT_ID":"2026-118AD","EPOCH":"2026-07-08T08:46:18.752448","CLASSIFICATION_TYPE":"U","MEAN_MOTION":15.3744064,"ECCENTRICITY":0.00005068,"INCLINATION":51.8722,"RA_OF_ASC_NODE":310.6233,"ARG_OF_PERICENTER":175.0704,"MEAN_ANOMALY":185.0288,"EPHEMERIS_TYPE":0,"NORAD_CAT_ID":69294,"ELEMENT_SET_NO":999,"REV_AT_EPOCH":724,"BSTAR":0.00058466787,"MEAN_MOTION_DOT":0.00021472,"MEAN_MOTION_DDOT":0},{"OBJECT_NAME":"KUIPER-00620","OBJECT_ID":"2026-118AE","EPOCH":"2026-07-08T19:34:04.095552","CLASSIFICATION_TYPE":"U","MEAN_MOTION":15.38665267,"ECCENTRICITY":0.00020236,"INCLINATION":51.8728,"RA_OF_ASC_NODE":308.3925,"ARG_OF_PERICENTER":273.5633,"MEAN_ANOMALY":86.5122,"EPHEMERIS_TYPE":0,"NORAD_CAT_ID":69295,"ELEMENT_SET_NO":999,"REV_AT_EPOCH":731,"BSTAR":0.00080579624,"MEAN_MOTION_DOT":0.00031,"MEAN_MOTION_DDOT":0},{"OBJECT_NAME":"KUIPER-00423","OBJECT_ID":"2026-140A","EPOCH":"2026-07-08T14:55:52.586688","CLASSIFICATION_TYPE":"U","MEAN_MOTION":15.38497497,"ECCENTRICITY":0.00135105,"INCLINATION":51.8809,"RA_OF_ASC_NODE":294.8872,"ARG_OF_PERICENTER":245.0874,"MEAN_ANOMALY":114.871,"EPHEMERIS_TYPE":0,"NORAD_CAT_ID":69592,"ELEMENT_SET_NO":999,"REV_AT_EPOCH":453,"BSTAR":0.0003726333,"MEAN_MOTION_DOT":0.00014047,"MEAN_MOTION_DDOT":0},{"OBJECT_NAME":"KUIPER-00428","OBJECT_ID":"2026-140B","EPOCH":"2026-07-08T15:41:15.293472","CLASSIFICATION_TYPE":"U","MEAN_MOTION":15.36838367,"ECCENTRICITY":0.00076476,"INCLINATION":51.8799,"RA_OF_ASC_NODE":295.0909,"ARG_OF_PERICENTER":10.2928,"MEAN_ANOMALY":349.8213,"EPHEMERIS_TYPE":0,"NORAD_CAT_ID":69593,"ELEMENT_SET_NO":999,"REV_AT_EPOCH":453,"BSTAR":0.00030919861,"MEAN_MOTION_DOT":0.00010941,"MEAN_MOTION_DDOT":0},{"OBJECT_NAME":"KUIPER-00481","OBJECT_ID":"2026-140C","EPOCH":"2026-07-08T15:08:17.861856","CLASSIFICATION_TYPE":"U","MEAN_MOTION":15.37867434,"ECCENTRICITY":0.00109778,"INCLINATION":51.8778,"RA_OF_ASC_NODE":294.9384,"ARG_OF_PERICENTER":252.698,"MEAN_ANOMALY":107.2807,"EPHEMERIS_TYPE":0,"NORAD_CAT_ID":69594,"ELEMENT_SET_NO":999,"REV_AT_EPOCH":453,"BSTAR":0.0003848851,"MEAN_MOTION_DOT":0.00014208,"MEAN_MOTION_DDOT":0},{"OBJECT_NAME":"KUIPER-00490","OBJECT_ID":"2026-140D","EPOCH":"2026-07-08T15:22:04.809216","CLASSIFICATION_TYPE":"U","MEAN_MOTION":15.37843585,"ECCENTRICITY":0.00063765,"INCLINATION":51.8773,"RA_OF_ASC_NODE":294.9969,"ARG_OF_PERICENTER":315.2234,"MEAN_ANOMALY":44.8238,"EPHEMERIS_TYPE":0,"NORAD_CAT_ID":69595,"ELEMENT_SET_NO":999,"REV_AT_EPOCH":453,"BSTAR":0.00033922351,"MEAN_MOTION_DOT":0.00012448,"MEAN_MOTION_DDOT":0},{"OBJECT_NAME":"KUIPER-00493","OBJECT_ID":"2026-140E","EPOCH":"2026-07-08T15:47:10.145184","CLASSIFICATION_TYPE":"U","MEAN_MOTION":15.36563377,"ECCENTRICITY":0.00075654,"INCLINATION":51.8796,"RA_OF_ASC_NODE":295.117,"ARG_OF_PERICENTER":17.2836,"MEAN_ANOMALY":342.8407,"EPHEMERIS_TYPE":0,"NORAD_CAT_ID":69596,"ELEMENT_SET_NO":999,"REV_AT_EPOCH":453,"BSTAR":0.00029411902,"MEAN_MOTION_DOT":0.00010293,"MEAN_MOTION_DDOT":0},{"OBJECT_NAME":"KUIPER-00496","OBJECT_ID":"2026-140F","EPOCH":"2026-07-08T19:15:37.321920","CLASSIFICATION_TYPE":"U","MEAN_MOTION":15.3440222,"ECCENTRICITY":0.00102931,"INCLINATION":51.88,"RA_OF_ASC_NODE":294.5785,"ARG_OF_PERICENTER":33.0522,"MEAN_ANOMALY":327.1105,"EPHEMERIS_TYPE":0,"NORAD_CAT_ID":69597,"ELEMENT_SET_NO":999,"REV_AT_EPOCH":455,"BSTAR":0.00051366478,"MEAN_MOTION_DOT":0.00017057,"MEAN_MOTION_DDOT":0},{"OBJECT_NAME":"KUIPER-00513","OBJECT_ID":"2026-140G","EPOCH":"2026-07-08T12:11:26.852352","CLASSIFICATION_TYPE":"U","MEAN_MOTION":15.38051973,"ECCENTRICITY":0.00064765,"INCLINATION":51.8799,"RA_OF_ASC_NODE":295.6205,"ARG_OF_PERICENTER":314.897,"MEAN_ANOMALY":45.1491,"EPHEMERIS_TYPE":0,"NORAD_CAT_ID":69598,"ELEMENT_SET_NO":999,"REV_AT_EPOCH":451,"BSTAR":0.00056165814,"MEAN_MOTION_DOT":0.00021039,"MEAN_MOTION_DDOT":0},{"OBJECT_NAME":"KUIPER-00516","OBJECT_ID":"2026-140H","EPOCH":"2026-07-08T15:27:05.136480","CLASSIFICATION_TYPE":"U","MEAN_MOTION":15.37482564,"ECCENTRICITY":0.0006786,"INCLINATION":51.878,"RA_OF_ASC_NODE":295.0229,"ARG_OF_PERICENTER":330.9271,"MEAN_ANOMALY":29.1337,"EPHEMERIS_TYPE":0,"NORAD_CAT_ID":69599,"ELEMENT_SET_NO":999,"REV_AT_EPOCH":453,"BSTAR":0.00034703397,"MEAN_MOTION_DOT":0.00012593,"MEAN_MOTION_DDOT":0}]}
